BEESAT-4                
1 41619U 16040W   21198.36856593  .00001728  00000-0  70599-4 0  9990
2 41619  97.2676 253.6206 0009488 217.6641 142.3934 15.25671475269578
CAS-2T & KS-1Q          
1 41847U 16066G   21198.11348750  .00000129  00000-0  28903-4 0  9991
2 41847  98.5992 257.3650 0366184 131.7630 231.5477 14.38210457246146
NAYIF-1 (EO-88)         
1 42017U 17008BX  21198.15586062  .00002086  00000-0  78203-4 0  9994
2 42017  97.3140 265.2247 0006159  20.6165 339.5322 15.28351925245794
ZHUHAI-1 02 (CAS-4B)    
1 42759U 17034B   21198.52133883  .00000259  00000-0  28865-4 0  9995
2 42759  43.0187  15.7700 0009349 345.6700 111.5291 15.10266527225691
ZHUHAI-1 01 (CAS-4A)    
1 42761U 17034D   21198.51023916  .00000304  00000-0  31522-4 0  9997
2 42761  43.0179  14.8653 0009450 345.4205 109.9650 15.10354650225698
MAX VALIER SAT          
1 42778U 17036P   21198.38231372  .00001187  00000-0  52193-4 0  9996
2 42778  97.2528 246.0100 0013578  74.0178 286.2554 15.23714731225844
RADFXSAT (FOX-1B)       
1 43017U 17073E   21198.29265763  .00000331  00000-0  31141-4 0  9995
2 43017  97.7044 101.0980 0254127 202.7393 156.2404 14.79600796197530
FOX-1D (AO-92)          
1 43137U 18004AC  21198.18179709  .00001309  00000-0  54676-4 0  9999
2 43137  97.4057 271.9099 0010433 104.6221 255.6175 15.25371220195189
DIWATA-2B               
1 43678U 18084H   21198.50364193 -.00000017  00000-0  41229-5 0  9993
2 43678  97.9281 323.9431 0009057 318.7814  41.2727 14.91762706147912
ES'HAIL 2               
1 43700U 18090A   21198.27977751  .00000147  00000-0  00000-0 0  9990
2 43700   0.0207  50.1907 0001577  86.5350 285.1173  1.00268398  9669
FOX-1CLIFF (AO-95)      
1 43770U 18099N   21198.42818203  .00000096  00000-0  13847-4 0  9999
2 43770  97.6638 267.9520 0013448 322.7458  37.2829 14.95360084142934
ITASAT 1                
1 43786U 18099AE  21198.14086089  .00000682  00000-0  66371-4 0  9995
2 43786  97.6658 268.3698 0013845 315.6498  44.3613 14.95647508142928
JY1SAT (JO-97)          
1 43803U 18099AX  21198.16663508 -.00000060  00000-0 -27368-6 0  9991
2 43803  97.6620 268.1435 0013928 315.8031  44.2077 14.95902630142935
UWE-4                   
1 43880U 18111E   21198.26402875  .00000097  00000-0  13482-4 0  9998
2 43880  97.6845 105.4872 0012496  10.5675 349.5807 14.96904707139542
NEXUS (FO-99)           
1 43937U 19003F   21198.42345408  .00001422  00000-0  57908-4 0  9992
2 43937  97.1741 240.4033 0021227 265.8279  94.0534 15.25883912138838
PSAT2 (NO-104)          
1 44354U 19036R   21198.42948399  .00015099  00000-0  19567-3 0  9993
2 44354  28.5303 287.0537 0321081 241.2333 115.5650 15.14610792113529
BRICSAT2 (NO-103)       
1 44355U 19036S   21198.45695977  .00032454 -60491-5  32688-3 0  9997
2 44355  28.5272 236.7200 0253996 323.3429  35.0034 15.32132022114034
JAISAT-1                
1 44419U 19038F   21198.38322505  .00000919  00000-0  54330-4 0  9990
2 44419  97.5901 162.9783 0020127 205.0387 154.9870 15.13852577112325
DUCHIFAT-3              
1 44854U 19089C   21198.55803904  .00000342  00000-0  33692-4 0  9993
2 44854  36.9681 282.6002 0008304  13.3123 346.7844 14.99539376 87623
CAS-6 (TO-108)          
1 44881U 19093C   21198.45601271  .00000060  00000-0  14458-4 0  9996
2 44881  97.9238 276.9576 0014586 190.3815 169.7102 14.81463345 85174
RS-44 & BREEZE-KM R/B   
1 44909U 19096E   21198.33666449  .00000006  00000-0 -22943-4 0  9994
2 44909  82.5213  92.9603 0218054  23.5166 337.5724 12.79710856 72647
ORBITAL FACTORY 2 (OF-2)
1 45113U 19071C   21198.40111865  .00001727  00000-0  59419-4 0  9998
2 45113  51.6414 252.2850 0012285  42.7986 317.3951 15.35981558 81777
HUSKYSAT-1 (HO-107)     
1 45119U 19071J   21198.41214837  .00002107  00000-0  70033-4 0  9996
2 45119  51.6410 251.6030 0011652  39.8067 320.3769 15.35994533 81774
BY70-2                  
1 45857U 20042B   21198.45176236  .00001093  00000-0  16175-3 0  9998
2 45857  97.9833 273.8875 0012675 114.6584 245.5951 14.77114158 55976
SALSAT                  
1 46495U 20068K   21198.54344348  .00000104  00000-0  12171-4 0  9991
2 46495  97.6956 135.8623 0016270 337.9225  22.1295 15.03493216 43852
BY70-3                  
1 46839U 20079N   21198.46548116  .00002732  00000-0  85605-4 0  9996
2 46839  97.2393 271.7278 0009037  97.2565  33.7279 15.33890253 38801
RADFXSAT-2 (AO-109)     
1 47311U 21002C   21198.32035382  .00000685  00000-0  41619-4 0  9992
2 47311  60.6839 179.3860 0039469  63.7275 296.7859 15.21741543 27418
UVSQ-SAT                
1 47438U 21006AB  21198.40371418  .00000737  00000-0  45096-4 0  9999
2 47438  97.4855 259.0896 0012594   2.6131 357.5163 15.13209392 26585
DIY-1 (ARDUIQUBE)       
1 47963U 21022AH  21198.23476573  .00001252  00000-0  86603-4 0  9991
2 47963  97.5562 100.0411 0018585 198.6023 161.4528 15.07383265 16383
